$$SOE
2461302.500000000, A.D. 2026-Sep-19 00:00:00.0000, 6.535958677258229E+09, -2.767479227696653E+09, 1.778278292230253E+08,
2461309.500000000, A.D. 2026-Sep-26 00:00:00.0000, 6.536920110975143E+09, -2.765096128196884E+09, 1.779394867022791E+08,
2461316.500000000, A.D. 2026-Oct-03 00:00:00.0000, 6.537880682032781E+09, -2.762712706721663E+09, 1.780511201276492E+08,
2461323.500000000, A.D. 2026-Oct-10 00:00:00.0000, 6.538840389988238E+09, -2.760328965704697E+09, 1.781627295209789E+08,
2461330.500000000, A.D. 2026-Oct-17 00:00:00.0000, 6.539799234779781E+09, -2.757944907714778E+09, 1.782743148802973E+08,
2461337.500000000, A.D. 2026-Oct-24 00:00:00.0000, 6.540757216664996E+09, -2.755560535482728E+09, 1.783858761776233E+08,
2461344.500000000, A.D. 2026-Oct-31 00:00:00.0000, 6.541714336247166E+09, -2.753175852091081E+09, 1.784974133347396E+08,
2461351.500000000, A.D. 2026-Nov-07 00:00:00.0000, 6.542670594928914E+09, -2.750790861252401E+09, 1.786089261520497E+08,
2461358.500000000, A.D. 2026-Nov-14 00:00:00.0000, 6.543625995994010E+09, -2.748405566788800E+09, 1.787204142448194E+08,
2461365.500000000, A.D. 2026-Nov-21 00:00:00.0000, 6.544580544505566E+09, -2.746019970630800E+09, 1.788318772089243E+08,
2461372.500000000, A.D. 2026-Nov-28 00:00:00.0000, 6.545534245022557E+09, -2.743634072343603E+09, 1.789433148620930E+08,
2461379.500000000, A.D. 2026-Dec-05 00:00:00.0000, 6.546487100754175E+09, -2.741247870837064E+09, 1.790547271752988E+08,
2461386.500000000, A.D. 2026-Dec-12 00:00:00.0000, 6.547439114316963E+09, -2.738861365148440E+09, 1.791661141337241E+08,
2461393.500000000, A.D. 2026-Dec-19 00:00:00.0000, 6.548390288207449E+09, -2.736474554291431E+09, 1.792774757011530E+08,
2461400.500000000, A.D. 2026-Dec-26 00:00:00.0000, 6.549340624847856E+09, -2.734087437039633E+09, 1.793888118301593E+08,
2461407.500000000, A.D. 2027-Jan-02 00:00:00.0000, 6.550290126480474E+09, -2.731700011835412E+09, 1.795001224773443E+08,
2461414.500000000, A.D. 2027-Jan-09 00:00:00.0000, 6.551238795027007E+09, -2.729312276804214E+09, 1.796114076146770E+08,
2461421.500000000, A.D. 2027-Jan-16 00:00:00.0000, 6.552186631947188E+09, -2.726924229865703E+09, 1.797226672344890E+08,
2461428.500000000, A.D. 2027-Jan-23 00:00:00.0000, 6.553133638141264E+09, -2.724535868981569E+09, 1.798339013406932E+08,
2461435.500000000, A.D. 2027-Jan-30 00:00:00.0000, 6.554079814082442E+09, -2.722147192587961E+09, 1.799451099050632E+08,
2461442.500000000, A.D. 2027-Feb-06 00:00:00.0000, 6.555025160602407E+09, -2.719758199872688E+09, 1.800562927773218E+08,
2461449.500000000, A.D. 2027-Feb-13 00:00:00.0000, 6.555969679868032E+09, -2.717368889677631E+09, 1.801674496907983E+08,
2461456.500000000, A.D. 2027-Feb-20 00:00:00.0000, 6.556913374184107E+09, -2.714979258817465E+09, 1.802785805156403E+08,
2461463.500000000, A.D. 2027-Feb-27 00:00:00.0000, 6.557856244016993E+09, -2.712589303028409E+09, 1.803896853687311E+08,
2461470.500000000, A.D. 2027-Mar-06 00:00:00.0000, 6.558798288256768E+09, -2.710199018624448E+09, 1.805007644604036E+08,
2461477.500000000, A.D. 2027-Mar-13 00:00:00.0000, 6.559739505117296E+09, -2.707808402811560E+09, 1.806118179920255E+08,
2461484.500000000, A.D. 2027-Mar-20 00:00:00.0000, 6.560679892544631E+09, -2.705417453494614E+09, 1.807228461396450E+08,
2461491.500000000, A.D. 2027-Mar-27 00:00:00.0000, 6.561619448335764E+09, -2.703026169125862E+09, 1.808338490601741E+08,
2461498.500000000, A.D. 2027-Apr-03 00:00:00.0000, 6.562558170170578E+09, -2.700634548642770E+09, 1.809448268974812E+08,
2461505.500000000, A.D. 2027-Apr-10 00:00:00.0000, 6.563496055618281E+09, -2.698242591472119E+09, 1.810557797845954E+08,
2461512.500000000, A.D. 2027-Apr-17 00:00:00.0000, 6.564433102140353E+09, -2.695850297614694E+09, 1.811667078387765E+08,
2461519.500000000, A.D. 2027-Apr-24 00:00:00.0000, 6.565369307169267E+09, -2.693457667872718E+09, 1.812776111370800E+08,
2461526.500000000, A.D. 2027-May-01 00:00:00.0000, 6.566304668562582E+09, -2.691064704192227E+09, 1.813884896472082E+08,
2461533.500000000, A.D. 2027-May-08 00:00:00.0000, 6.567239185739817E+09, -2.688671409371975E+09, 1.814993431466202E+08,
2461540.500000000, A.D. 2027-May-15 00:00:00.0000, 6.568172860005229E+09, -2.686277785185449E+09, 1.816101713451275E+08,
2461547.500000000, A.D. 2027-May-22 00:00:00.0000, 6.569105692492644E+09, -2.683883831507596E+09, 1.817209741426504E+08,
2461554.500000000, A.D. 2027-May-29 00:00:00.0000, 6.570037683088244E+09, -2.681489547914517E+09, 1.818317515944128E+08,
2461561.500000000, A.D. 2027-Jun-05 00:00:00.0000, 6.570968831216167E+09, -2.679094934624371E+09, 1.819425037584456E+08,
2461568.500000000, A.D. 2027-Jun-12 00:00:00.0000, 6.571899136479397E+09, -2.676699992347702E+09, 1.820532306449338E+08,
2461575.500000000, A.D. 2027-Jun-19 00:00:00.0000, 6.572828598824894E+09, -2.674304721982199E+09, 1.821639322214838E+08,
2461582.500000000, A.D. 2027-Jun-26 00:00:00.0000, 6.573757218512416E+09, -2.671909124413203E+09, 1.822746084275233E+08,
2461589.500000000, A.D. 2027-Jul-03 00:00:00.0000, 6.574684996019135E+09, -2.669513200411659E+09, 1.823852591865958E+08,
2461596.500000000, A.D. 2027-Jul-10 00:00:00.0000, 6.575611931916903E+09, -2.667116950620804E+09, 1.824958844141310E+08,
2461603.500000000, A.D. 2027-Jul-17 00:00:00.0000, 6.576538026758518E+09, -2.664720375670425E+09, 1.826064840144247E+08,
2461610.500000000, A.D. 2027-Jul-24 00:00:00.0000, 6.577463281129390E+09, -2.662323476481527E+09, 1.827170578475969E+08,
2461617.500000000, A.D. 2027-Jul-31 00:00:00.0000, 6.578387696276090E+09, -2.659926254525865E+09, 1.828276056482726E+08,
2461624.500000000, A.D. 2027-Aug-07 00:00:00.0000, 6.579311275111003E+09, -2.657528710888635E+09, 1.829381270086904E+08,
2461631.500000000, A.D. 2027-Aug-14 00:00:00.0000, 6.580234021292002E+09, -2.655130844387620E+09, 1.830486216167011E+08,
2461638.500000000, A.D. 2027-Aug-21 00:00:00.0000, 6.581155936995346E+09, -2.652732652112987E+09, 1.831590894170648E+08,
2461645.500000000, A.D. 2027-Aug-28 00:00:00.0000, 6.582077022812878E+09, -2.650334131184499E+09, 1.832695304796550E+08,
2461652.500000000, A.D. 2027-Sep-04 00:00:00.0000, 6.582997278592352E+09, -2.647935279223863E+09, 1.833799448872831E+08,
2461659.500000000, A.D. 2027-Sep-11 00:00:00.0000, 6.583916703825610E+09, -2.645536094203483E+09, 1.834903327168645E+08,
2461666.500000000, A.D. 2027-Sep-18 00:00:00.0000, 6.584835297717745E+09, -2.643136574321723E+09, 1.836006940483364E+08,
2461673.500000000, A.D. 2027-Sep-25 00:00:00.0000, 6.585753059166168E+09, -2.640736717982062E+09, 1.837110289737343E+08,
2461680.500000000, A.D. 2027-Oct-02 00:00:00.0000, 6.586669986724600E+09, -2.638336523848252E+09, 1.838213376015177E+08,
2461687.500000000, A.D. 2027-Oct-09 00:00:00.0000, 6.587586078574527E+09, -2.635935990979573E+09, 1.839316200534756E+08,
2461694.500000000, A.D. 2027-Oct-16 00:00:00.0000, 6.588501332567380E+09, -2.633535119100660E+09, 1.840418764436989E+08,
2461701.500000000, A.D. 2027-Oct-23 00:00:00.0000, 6.589415746597441E+09, -2.631133909011188E+09, 1.841521068151382E+08,
2461708.500000000, A.D. 2027-Oct-30 00:00:00.0000, 6.590329319680343E+09, -2.628732362524744E+09, 1.842623110491067E+08,
2461715.500000000, A.D. 2027-Nov-06 00:00:00.0000, 6.591242052573815E+09, -2.626330480808452E+09, 1.843724889465365E+08,
2461722.500000000, A.D. 2027-Nov-13 00:00:00.0000, 6.592153945955334E+09, -2.623928263199344E+09, 1.844826404933370E+08,
2461729.500000000, A.D. 2027-Nov-20 00:00:00.0000, 6.593064999058585E+09, -2.621525708683184E+09, 1.845927658650603E+08,
2461736.500000000, A.D. 2027-Nov-27 00:00:00.0000, 6.593975210386352E+09, -2.619122817071148E+09, 1.847028652648031E+08,
2461743.500000000, A.D. 2027-Dec-04 00:00:00.0000, 6.594884578476270E+09, -2.616719588960368E+09, 1.848129388546638E+08,
2461750.500000000, A.D. 2027-Dec-11 00:00:00.0000, 6.595793102168895E+09, -2.614316025442215E+09, 1.849229867525276E+08,
2461757.500000000, A.D. 2027-Dec-18 00:00:00.0000, 6.596700780653054E+09, -2.611912127897333E+09, 1.850330090413162E+08,
2461764.500000000, A.D. 2027-Dec-25 00:00:00.0000, 6.597607613440488E+09, -2.609507897879477E+09, 1.851430057766851E+08,
2461771.500000000, A.D. 2028-Jan-01 00:00:00.0000, 6.598513600311172E+09, -2.607103337073476E+09, 1.852529769906602E+08,
$$EOE